[{"OBJECT_NAME":"JILIN-1 GAOFEN 03D18","OBJECT_ID":"2022-019W","EPOCH":"2026-03-09T22:03:04.622400","MEAN_MOTION":15.76695092,"ECCENTRICITY":0.00043918,"INCLINATION":97.3672,"RA_OF_ASC_NODE":161.2344,"ARG_OF_PERICENTER":144.1291,"MEAN_ANOMALY":216.027,"EPHEMERIS_TYPE":0,"CLASSIFICATION_TYPE":"U","NORAD_CAT_ID":51844,"ELEMENT_SET_NO":999,"REV_AT_EPOCH":22438,"BSTAR":0.0011951386,"MEAN_MOTION_DOT":0.00194669,"MEAN_MOTION_DDOT":0},{"OBJECT_NAME":"STARLINK-36586","OBJECT_ID":"2026-014S","EPOCH":"2026-03-09T15:40:34.371840","MEAN_MOTION":15.7520928,"ECCENTRICITY":9.53e-5,"INCLINATION":97.2836,"RA_OF_ASC_NODE":313.676,"ARG_OF_PERICENTER":29.3985,"MEAN_ANOMALY":330.7334,"EPHEMERIS_TYPE":0,"CLASSIFICATION_TYPE":"U","NORAD_CAT_ID":67548,"ELEMENT_SET_NO":999,"REV_AT_EPOCH":857,"BSTAR":0.0011796,"MEAN_MOTION_DOT":0.00179715,"MEAN_MOTION_DDOT":0}]
